NORAD_CAT_ID,OBJECT_NAME,OBJECT_TYPE,EPOCH,MEAN_MOTION,ECCENTRICITY,INCLINATION,RA_OF_ASC_NODE,ARG_OF_PERICENTER,MEAN_ANOMALY,BSTAR,MEAN_MOTION_DOT,MEAN_MOTION_DDOT,TLE_LINE0,TLE_LINE1,TLE_LINE2,SEMIMAJOR_AXIS,PERIOD,APOGEE,PERIGEE,DECAYED
52663.0,STARLINK-4037,PAYLOAD,2022-11-16 18:59:46,15.0881563,0.0002646,53.2154,181.0798,32.8195,327.2961,0.0002759,4.103e-05,0.0,0 STARLINK-4037,1 52663U 22053H   22320.79151392  .00004103  00000-0  27590-3 0  9994,2 52663  53.2154 181.0798 0002646  32.8195 327.2961 15.08815630 28540,6917.955,95.439,541.65,537.989,0.0
52663.0,STARLINK-4037,PAYLOAD,2022-11-16 23:45:56,15.08811297,0.0002737,53.216,180.1898,33.1855,326.9308,0.00025225,3.725e-05,0.0,0 STARLINK-4037,1 52663U 22053H   22320.99023935  .00003725  00000-0  25225-3 0  9999,2 52663  53.2160 180.1898 0002737  33.1855 326.9308 15.08811297 28575,6917.968000000003,95.439,541.727,537.94,0.0
52663.0,STARLINK-4037,PAYLOAD,2022-11-17 07:42:51,15.08832002,0.0002813,53.216,178.7042,29.3296,330.7853,2.9337e-05,1.78e-06,0.0,0 STARLINK-4037,1 52663U 22053H   22321.32143346  .00000178  00000-0  29337-4 0  9994,2 52663  53.2160 178.7042 0002813  29.3296 330.7853 15.08832002 28621,6917.905,95.438,541.716,537.8240000000002,0.0
52663.0,STARLINK-4037,PAYLOAD,2022-11-17 22:01:19,15.08852861,0.0002749,53.2159,176.0282,31.7731,328.3426,-0.00015565,-2.766e-05,0.0,0 STARLINK-4037,1 52663U 22053H   22321.91758411 -.00002766  00000-0 -15565-3 0  9998,2 52663  53.2159 176.0282 0002749  31.7731 328.3426 15.08852861 28719,6917.840999999999,95.437,541.6080000000002,537.804,0.0
52663.0,STARLINK-4037,PAYLOAD,2022-11-18 07:33:38,15.08839391,0.0002844,53.2162,174.2435,30.7225,329.3933,6.9862e-05,8.23e-06,0.0,0 STARLINK-4037,1 52663U 22053H   22322.31502751  .00000823  00000-0  69862-4 0  9997,2 52663  53.2162 174.2435 0002844  30.7225 329.3933 15.08839391 28779,6917.882,95.438,541.715,537.78,0.0
52663.0,STARLINK-4037,PAYLOAD,2022-11-18 13:55:10,15.08836666,0.0002873,53.2163,173.0539,31.6204,328.4961,0.00012289,1.668e-05,0.0,0 STARLINK-4037,1 52663U 22053H   22322.57998807  .00001668  00000-0  12289-3 0  9994,2 52663  53.2163 173.0539 0002873  31.6204 328.4961 15.08836666 28819,6917.891,95.438,541.743,537.768,0.0
52663.0,STARLINK-4037,PAYLOAD,2022-11-18 23:27:29,15.08842703,0.0002891,53.2159,171.2706,32.4601,327.6569,0.00015536,2.185e-05,0.0,0 STARLINK-4037,1 52663U 22053H   22322.97742302  .00002185  00000-0  15536-3 0  9998,2 52663  53.2159 171.2706 0002891  32.4601 327.6569 15.08842703 28870,6917.871999999999,95.437,541.737,537.737,0.0
52663.0,STARLINK-4037,PAYLOAD,2022-11-19 13:45:58,15.08833086,0.000279,53.2161,168.5926,36.0144,324.1036,3.4615e-06,-2.33e-06,0.0,0 STARLINK-4037,1 52663U 22053H   22323.57359547 -.00000233  00000-0  34615-5 0  9994,2 52663  53.2161 168.5926 0002790  36.0144 324.1036 15.08833086 28961,6917.901999999999,95.438,541.697,537.836,0.0
52663.0,STARLINK-4037,PAYLOAD,2022-11-19 20:07:31,15.08832285,0.0003009,53.216,167.4046,35.7413,324.378,-1.2039e-05,-4.8e-06,0.0,0 STARLINK-4037,1 52663U 22053H   22323.83855657 -.00000480  00000-0 -12039-4 0  9996,2 52663  53.2160 167.4046 0003009  35.7413 324.3780 15.08832285 29004,6917.904,95.438,541.851,537.687,0.0
52663.0,STARLINK-4037,PAYLOAD,2022-11-20 07:15:12,15.08838974,0.0003063,53.2156,165.3235,36.4744,323.6456,1.5461e-05,-4.3e-07,0.0,0 STARLINK-4037,1 52663U 22053H   22324.30223288 -.00000043  00000-0  15461-4 0  9994,2 52663  53.2156 165.3235 0003063  36.4744 323.6456 15.08838974 29071,6917.884,95.438,541.867,537.63,0.0
52663.0,STARLINK-4037,PAYLOAD,2022-11-20 13:36:45,15.08840867,0.0002911,53.2168,164.1335,34.6706,325.4475,2.9305e-05,1.78e-06,0.0,0 STARLINK-4037,1 52663U 22053H   22324.56719056  .00000178  00000-0  29305-4 0  9995,2 52663  53.2168 164.1335 0002911  34.6706 325.4475 15.08840867 29111,6917.878000000002,95.437,541.757,537.729,0.0
52663.0,STARLINK-4037,PAYLOAD,2022-11-20 19:58:17,15.08846762,0.0002933,53.2161,162.9439,35.3996,324.7191,2.0913e-06,-2.55e-06,0.0,0 STARLINK-4037,1 52663U 22053H   22324.83214685 -.00000255  00000-0  20913-5 0  9997,2 52663  53.2161 162.9439 0002933  35.3996 324.7191 15.08846762 29159,6917.86,95.437,541.754,537.696,0.0
52663.0,STARLINK-4037,PAYLOAD,2022-11-21 13:27:32,15.08833178,0.000296,53.2154,159.6726,36.8702,323.2493,1.8437e-05,5e-08,0.0,0 STARLINK-4037,1 52663U 22053H   22325.56079607  .00000005  00000-0  18437-4 0  9990,2 52663  53.2154 159.6726 0002960  36.8702 323.2493 15.08833178 29262,6917.901,95.438,541.814,537.719,0.0
52663.0,STARLINK-4037,PAYLOAD,2022-11-21 16:38:19,15.08832258,0.0002966,53.2155,159.0778,37.0979,323.0218,8.0487e-06,-1.61e-06,0.0,0 STARLINK-4037,1 52663U 22053H   22325.69327746 -.00000161  00000-0  80487-5 0  9993,2 52663  53.2155 159.0778 0002966  37.0979 323.0218 15.08832258 29282,6917.904,95.438,541.821,537.717,0.0
52663.0,STARLINK-4037,PAYLOAD,2022-11-21 19:49:05,15.08832303,0.0002968,53.2159,158.4833,37.1032,323.0165,4.6584e-06,-2.15e-06,0.0,0 STARLINK-4037,1 52663U 22053H   22325.82575808 -.00000215  00000-0  46584-5 0  9992,2 52663  53.2159 158.4833 0002968  37.1032 323.0165 15.08832303 29309,6917.904,95.438,541.822,537.716,0.0
52663.0,STARLINK-4037,PAYLOAD,2022-11-22 13:18:20,15.08834525,0.0003016,53.2159,155.2125,38.9471,321.1738,-1.9815e-05,-6.04e-06,0.0,0 STARLINK-4037,1 52663U 22053H   22326.55440050 -.00000604  00000-0 -19815-4 0  9992,2 52663  53.2159 155.2125 0003016  38.9471 321.1738 15.08834525 29414,6917.897,95.438,541.849,537.6759999999998,0.0
52663.0,STARLINK-4037,PAYLOAD,2022-11-22 19:39:52,15.08835728,0.0003022,53.2163,154.0235,39.7585,320.3628,-7.1178e-06,-4.02e-06,0.0,0 STARLINK-4037,1 52663U 22053H   22326.81935959 -.00000402  00000-0 -71178-5 0  9995,2 52663  53.2163 154.0235 0003022  39.7585 320.3628 15.08835728 29459,6917.893,95.438,541.849,537.668,0.0
52663.0,STARLINK-4037,PAYLOAD,2022-11-23 13:09:07,15.08833809,0.0003026,53.2159,150.7518,39.1018,321.0192,7.3552e-05,8.82e-06,0.0,0 STARLINK-4037,1 52663U 22053H   22327.54800035  .00000882  00000-0  73552-4 0  9999,2 52663  53.2159 150.7518 0003026  39.1018 321.0192 15.08833809 29564,6917.899,95.438,541.8580000000002,537.6709999999998,0.0
52663.0,STARLINK-4037,PAYLOAD,2022-11-23 19:30:39,15.08835559,0.0003036,53.2161,149.5625,39.6825,320.4389,8.2861e-05,1.03e-05,0.0,0 STARLINK-4037,1 52663U 22053H   22327.81295975  .00001030  00000-0  82861-4 0  9999,2 52663  53.2161 149.5625 0003036  39.6825 320.4389 15.08835559 29604,6917.894,95.438,541.859,537.659,0.0
52663.0,STARLINK-4037,PAYLOAD,2022-11-24 11:24:30,15.08841622,0.0003061,53.2162,146.5887,41.1228,318.9995,7.4091e-05,8.91e-06,0.0,0 STARLINK-4037,1 52663U 22053H   22328.47535775  .00000891  00000-0  74091-4 0  9997,2 52663  53.2162 146.5887 0003061  41.1228 318.9995 15.08841622 29709,6917.875,95.437,541.8580000000002,537.623,0.0
52663.0,STARLINK-4037,PAYLOAD,2022-11-24 17:46:03,15.08842387,0.0003077,53.2163,145.3993,41.7557,318.367,7.3957e-05,8.89e-06,0.0,0 STARLINK-4037,1 52663U 22053H   22328.74031674  .00000889  00000-0  73957-4 0  9993,2 52663  53.2163 145.3993 0003077  41.7557 318.3670 15.08842387 29740,6917.873000000001,95.437,541.867,537.609,0.0
52663.0,STARLINK-4037,PAYLOAD,2022-11-25 12:50:41,15.08841282,0.0003158,53.2174,141.8309,44.7691,315.3556,3.2402e-05,2.27e-06,0.0,0 STARLINK-4037,1 52663U 22053H   22329.53519751  .00000227  00000-0  32402-4 0  9994,2 52663  53.2174 141.8309 0003158  44.7691 315.3556 15.08841282 29862,6917.876,95.437,541.9259999999998,537.557,0.0
52663.0,STARLINK-4037,PAYLOAD,2022-11-25 17:36:50,15.08836146,0.0003081,53.216,140.938,43.1463,316.9770000000001,-2.9136e-05,-7.52e-06,0.0,0 STARLINK-4037,1 52663U 22053H   22329.73392232 -.00000752  00000-0 -29136-4 0  9994,2 52663  53.2160 140.9380 0003081  43.1463 316.9770 15.08836146 29892,6917.892,95.438,541.889,537.626,0.0
52663.0,STARLINK-4037,PAYLOAD,2022-11-25 19:12:14,15.08835702,0.0003074,53.216,140.6407,42.8683,317.2548,-3.2811e-05,-8.11e-06,0.0,0 STARLINK-4037,1 52663U 22053H   22329.80016279 -.00000811  00000-0 -32811-4 0  9996,2 52663  53.2160 140.6407 0003074  42.8683 317.2548 15.08835702 29907,6917.894,95.438,541.885,537.632,0.0
52663.0,STARLINK-4037,PAYLOAD,2022-11-26 11:06:05,15.08839851,0.0003006,53.216,137.6667,43.3172,316.8056,-4.762e-05,-1.047e-05,0.0,0 STARLINK-4037,1 52663U 22053H   22330.46256116 -.00001047  00000-0 -47620-4 0  9992,2 52663  53.2160 137.6667 0003006  43.3172 316.8056 15.08839851 30006,6917.880999999999,95.438,541.825,537.6659999999998,0.0
52663.0,STARLINK-4037,PAYLOAD,2022-11-26 17:27:37,15.08841875,0.000301,53.2159,136.4773,43.6687,316.4543,-2.5345e-05,-6.92e-06,0.0,0 STARLINK-4037,1 52663U 22053H   22330.72751883 -.00000692  00000-0 -25345-4 0  9997,2 52663  53.2159 136.4773 0003010  43.6687 316.4543 15.08841875 30048,6917.875,95.437,541.822,537.6569999999998,0.0
52663.0,STARLINK-4037,PAYLOAD,2022-11-26 20:38:23,15.08842506,0.000307,53.216,135.8826,44.3998,315.724,-1.6720999999999998e-05,-5.55e-06,0.0,0 STARLINK-4037,1 52663U 22053H   22330.85999803 -.00000555  00000-0 -16721-4 0  9993,2 52663  53.2160 135.8826 0003070  44.3998 315.7240 15.08842506 30061,6917.873000000001,95.437,541.862,537.614,0.0
52663.0,STARLINK-4037,PAYLOAD,2022-11-27 10:56:51,15.08841047,0.0003073,53.216,133.20600000000002,45.2972,314.827,4.6699e-05,4.55e-06,0.0,0 STARLINK-4037,1 52663U 22053H   22331.45615523  .00000455  00000-0  46699-4 0  9998,2 52663  53.2160 133.2060 0003073  45.2972 314.8270 15.08841047 30150,6917.877,95.437,541.868,537.616,0.0
52663.0,STARLINK-4037,PAYLOAD,2022-11-27 17:18:24,15.088439,0.0003083,53.2159,132.0166,45.7742,314.3503,6.7598e-05,7.87e-06,0.0,0 STARLINK-4037,1 52663U 22053H   22331.72111231  .00000787  00000-0  67598-4 0  9994,2 52663  53.2159 132.0166 0003083  45.7742 314.3503 15.08843900 30191,6917.868,95.437,541.866,537.601,0.0
